*******************************************************************************
Ephemeris / WWW_USER Mon Mar 10 07:40:46 2025 Pasadena, USA      / Horizons    
*******************************************************************************
Target body name: 584778 (2017 RG16)              {source: JPL#32}
Center body name: Earth (399)                     {source: DE441}
Center-site name: Mauna Kea
*******************************************************************************
Start time      : A.D. 2018-Aug-18 04:58:00.0000 UT      
Stop  time      : A.D. 2018-Aug-18 15:53:00.0000 UT      
Step-size       : 1 minutes
*******************************************************************************
Target pole/equ : undefined
Target radii    : undefined                                                    
Center geodetic : 204.5278, 19.8260847, 4.21024   {E-lon(deg),Lat(deg),Alt(km)}
Center cylindric: 204.5278, 6006.35451, 2151.0229 {E-lon(deg),Dxy(km),Dz(km)}
Center pole/equ : ITRF93                          {East-longitude positive}
Center radii    : 6378.137, 6378.137, 6356.752 km {Equator_a, b, pole_c}       
Target primary  : Sun
Vis. interferer : MOON (R_eq= 1737.400) km        {source: DE441}
Rel. light bend : Sun                             {source: DE441}
Rel. lght bnd GM: 1.3271E+11 km^3/s^2                                          
Small-body perts: Yes                             {source: SB441-N16}
Atmos refraction: NO (AIRLESS)
RA format       : HMS
Time format     : CAL 
Calendar mode   : Mixed Julian/Gregorian
RTS-only print  : NO       
EOP file        : eop.250307.p250603                                           
EOP coverage    : DATA-BASED 1962-JAN-20 TO 2025-MAR-07. PREDICTS-> 2025-JUN-02
Units conversion: 1 au= 149597870.700 km, c= 299792.458 km/s, 1 day= 86400.0 s 
Table cut-offs 1: Elevation (-90.0deg=NO ),Airmass (>38.000=NO), Daylight (YES)
Table cut-offs 2: Solar elongation (  0.0,180.0=NO ),Local Hour Angle( 0.0=NO )
Table cut-offs 3: RA/DEC angular rate (     0.0=NO )                           
*******************************************************************************
Initial IAU76/J2000 heliocentric ecliptic osculating elements (au, days, deg.):
  EPOCH=  2458734.5 ! 2019-Sep-08.00 (TDB)         Residual RMS= .14786        
   EC= .9085798704456644   QR= 7.106644157383132   TP= 2457926.6828443832      
   OM= .547367620295521    W=  323.0265763955561   IN= 74.86683883750447       
  Equivalent ICRF heliocentric cartesian coordinates (au, au/d):
   X= 8.360714527577798E+00  Y=-2.241293784086399E-01  Z= 2.069107023705337E+00
  VX= 1.416407206608659E-03 VY=-1.132497676729848E-03 VZ= 7.848232694960624E-03
Asteroid physical parameters (km, seconds, rotational period in hours):        
   GM= n.a.                RAD= n.a.               ROTPER= n.a.                
   H= 11.32                G= .150                 B-V= n.a.                   
                           ALBEDO= n.a.            STYP= n.a.                  
*******************************************************************************
 Date__(UT)__HR:MN     R.A._________(ICRF)_________DEC
******************************************************
$$SOE
 2018-Aug-18 15:13 A   00 25 28.285876 -06 31 06.53386
 2018-Aug-18 15:14 N   00 25 28.266649 -06 31 06.50312
 2018-Aug-18 15:15 N   00 25 28.247424 -06 31 06.47237
 2018-Aug-18 15:16 N   00 25 28.228199 -06 31 06.44162
 2018-Aug-18 15:17 N   00 25 28.208974 -06 31 06.41086
 2018-Aug-18 15:18 N   00 25 28.189751 -06 31 06.38011
 2018-Aug-18 15:19 N   00 25 28.170528 -06 31 06.34935
 2018-Aug-18 15:20 N   00 25 28.151306 -06 31 06.31860
 2018-Aug-18 15:21 N   00 25 28.132084 -06 31 06.28784
 2018-Aug-18 15:22 N   00 25 28.112863 -06 31 06.25708
 2018-Aug-18 15:23 N   00 25 28.093643 -06 31 06.22632
 2018-Aug-18 15:24 N   00 25 28.074424 -06 31 06.19555
 2018-Aug-18 15:25 N   00 25 28.055205 -06 31 06.16479
 2018-Aug-18 15:26 N   00 25 28.035987 -06 31 06.13402
 2018-Aug-18 15:27 N   00 25 28.016770 -06 31 06.10325
 2018-Aug-18 15:28 N   00 25 27.997554 -06 31 06.07248
 2018-Aug-18 15:29 N   00 25 27.978338 -06 31 06.04171
 2018-Aug-18 15:30 N   00 25 27.959123 -06 31 06.01093
 2018-Aug-18 15:31 N   00 25 27.939909 -06 31 05.98016
 2018-Aug-18 15:32 N   00 25 27.920695 -06 31 05.94938
 2018-Aug-18 15:33 N   00 25 27.901482 -06 31 05.91860
 2018-Aug-18 15:34 N   00 25 27.882270 -06 31 05.88782
 2018-Aug-18 15:35 N   00 25 27.863059 -06 31 05.85704
 2018-Aug-18 15:36 N   00 25 27.843849 -06 31 05.82626
 2018-Aug-18 15:37 N   00 25 27.824639 -06 31 05.79547
 2018-Aug-18 15:38 N   00 25 27.805431 -06 31 05.76469
 2018-Aug-18 15:39 N   00 25 27.786223 -06 31 05.73390
 2018-Aug-18 15:40 N   00 25 27.767015 -06 31 05.70311
 2018-Aug-18 15:41 C   00 25 27.747809 -06 31 05.67232
 2018-Aug-18 15:42 C   00 25 27.728603 -06 31 05.64153
 2018-Aug-18 15:43 C   00 25 27.709399 -06 31 05.61073
 2018-Aug-18 15:44 C   00 25 27.690195 -06 31 05.57994
 2018-Aug-18 15:45 C   00 25 27.670992 -06 31 05.54914
 2018-Aug-18 15:46 C   00 25 27.651789 -06 31 05.51834
 2018-Aug-18 15:47 C   00 25 27.632588 -06 31 05.48754
 2018-Aug-18 15:48 C   00 25 27.613387 -06 31 05.45674
 2018-Aug-18 15:49 C   00 25 27.594188 -06 31 05.42594
 2018-Aug-18 15:50 C   00 25 27.574989 -06 31 05.39513
 2018-Aug-18 15:51 C   00 25 27.555791 -06 31 05.36433
 2018-Aug-18 15:52 C   00 25 27.536594 -06 31 05.33352
 2018-Aug-18 15:53 C   00 25 27.517397 -06 31 05.30271
